ONEWEB-0365             
1 49291U 21090N   26154.46386131  .00000057  00000+0  10923-3 0  9996
2 49291  87.9168 307.7008 0001719  94.1665 265.9665 13.19727098224611
ONEWEB-0366             
1 49292U 21090P   26153.82127082  .00000116  00000+0  27890-3 0  9991
2 49292  87.8947 292.5705 0001927  99.6077 260.5271 13.14501275225672
ONEWEB-0367             
1 49293U 21090Q   26155.73902761 -.00000264  00000+0 -68138-3 0  9995
2 49293  87.9186 276.9210 0001414  82.8159 277.3135 13.20777233228182
ONEWEB-0368             
1 49294U 21090R   26155.71293734 -.00002501  00000+0 -61837-2 0  9991
2 49294  87.9187 276.9368 0001709  81.9483 278.1844 13.20783283229331
ONEWEB-0369             
1 49295U 21090S   26154.45912605  .00000040  00000+0  66739-4 0  9999
2 49295  87.9157 307.7104 0001766  93.1305 267.0030 13.19726484224608
ONEWEB-0370             
1 49296U 21090T   26154.30891748  .00000040  00000+0  66775-4 0  9998
2 49296  87.9191 277.2059 0001986 109.7151 250.4197 13.20773853228039
ONEWEB-0371             
1 49297U 21090U   26154.46701471  .00000042  00000+0  72277-4 0  9995
2 49297  87.9165 307.7000 0001749  98.3258 261.8073 13.19727326224648
ONEWEB-0372             
1 49298U 21090V   26154.29867931 -.00000003  00000+0 -39168-4 0  9992
2 49298  87.9205 277.2086 0001891 104.2796 255.8548 13.20770812228005
ONEWEB-0373             
1 49299U 21090W   26154.32407561  .00000024  00000+0  27254-4 0  9990
2 49299  87.9181 277.2051 0002023 103.8941 256.2417 13.20769992229194
ONEWEB-0374             
1 49300U 21090X   26154.34141191 -.00000070  00000+0 -22225-3 0  9994
2 49300  87.8959 292.4572 0002419  90.1889 269.9518 13.14503472225746
ONEWEB-0375             
1 49301U 21090Y   26154.31230059  .00000048  00000+0  87130-4 0  9994
2 49301  87.9190 277.1986 0002417  93.6208 266.5202 13.20771552228698
ONEWEB-0376             
1 49302U 21090Z   26154.46543622  .00000048  00000+0  86892-4 0  9998
2 49302  87.9169 307.6998 0001646  93.4587 266.6734 13.19724178224640
ONEWEB-0377             
1 49303U 21090AA  26155.73835480  .00000063  00000+0  12329-3 0  9996
2 49303  87.9187 276.9167 0002163  99.8078 260.3300 13.20771808228870
ONEWEB-0378             
1 49304U 21090AB  26154.31916068 -.00000609  00000+0 -15296-2 0  9995
2 49304  87.9177 277.2053 0001856 108.7633 251.3701 13.20767903227957
ONEWEB-0379             
1 49305U 21090AC  26154.33664616 -.00000100  00000+0 -30363-3 0  9996
2 49305  87.8955 292.4687 0001910  95.6194 264.5154 13.14502468225749
ONEWEB-0380             
1 49306U 21090AD  26154.46228714  .00000038  00000+0  62449-4 0  9995
2 49306  87.9158 307.7068 0002042  97.7613 262.3751 13.19724989224618
ONEWEB-0381             
1 49307U 21090AE  26155.73484721 -.00000023  00000+0 -87587-4 0  9995
2 49307  87.9205 276.9188 0002052  98.3328 261.8038 13.20772510228186
ONEWEB-0382             
1 49308U 21090AF  26155.72135091  .00000046  00000+0  81095-4 0  9999
2 49308  87.9191 276.9188 0002115  93.0275 267.1101 13.20772582228172
ONEWEB-0383             
1 49309U 21090AG  26154.33029588  .00000088  00000+0  20395-3 0  9990
2 49309  87.8966 292.4612 0001684  98.8966 261.2354 13.14503945225773
ONEWEB-0384             
1 49310U 21090AH  26155.93765997  .00002376  00000+0  58080-2 0  9993
2 49310  87.9189 276.9200 0002364  93.0314 267.1090 13.20800664228212
ONEWEB-0385             
1 49311U 21090AJ  26155.71464770 -.00000096  00000+0 -26851-3 0  9996
2 49311  87.9184 276.9263 0002114  94.9741 265.1634 13.20771239228154
ONEWEB-0386             
1 49312U 21090AK  26155.73147656 -.00000006  00000+0 -46630-4 0  9999
2 49312  87.9205 276.9106 0001990 100.3473 259.7885 13.20772712228176
ONEWEB-0387             
1 49313U 21090AL  26155.71632774  .00000071  00000+0  14380-3 0  9994
2 49313  87.9193 276.9409 0002434 109.1208 251.0190 13.20773798228175
ONEWEB-0388             
1 49314U 21090AM  26154.98826790  .00000026  00000+0  31730-4 0  9995
2 49314  87.9159 307.6003 0001920  91.9088 268.2265 13.19726303224675
ONEWEB-0389             
1 50469U 21132A   26155.13768748  .00000059  00000+0  11791-3 0  9991
2 50469  87.9143   8.4644 0002190  86.3960 273.7422 13.17647841216365
ONEWEB-0390             
1 50470U 21132B   26155.13937413  .00000028  00000+0  39447-4 0  9995
2 50470  87.9143   8.4646 0001810  94.5252 265.6087 13.17648293216361
ONEWEB-0391             
1 50471U 21132C   26155.14106294  .00000022  00000+0  23155-4 0  9995
2 50471  87.9144   8.4741 0002639  96.9001 263.2431 13.17647832216362
ONEWEB-0392             
1 50472U 21132D   26155.09551350  .00000017  00000+0  95901-5 0  9990
2 50472  87.9149   8.4505 0002280  85.7903 274.3489 13.17649973216392
ONEWEB-0393             
1 50473U 21132E   26155.14698065  .00000020  00000+0  18955-4 0  9999
2 50473  87.9142   8.4584 0002018  86.6333 273.5029 13.17649764216398
ONEWEB-0394             
1 50474U 21132F   26155.04733507  .00000123  00000+0  27979-3 0  9999
2 50474  87.9163 338.0563 0002038  87.4927 272.6438 13.18689064219868
